#dP2023 11  9  6  0  0.00000000      96 __u+U IGS20 EXT  IAC
## 2287 367200.00000000   900.00000000 60257 0.2500000000000
+  117   C06C07C08C09C10C11C12C13C14C16C19C20C21C22C23C24C25
+        C26C27C28C29C30C32C33C34C35C36C37C38C39C40C41C42C43
+        C44C45C46E02E03E04E07E08E09E10E11E12E13E15E19E21E24
+        E25E26E27E30E31E33E34E36G01G02G03G04G05G06G07G08G09
+        G10G11G12G13G14G15G16G17G18G19G20G21G22G23G24G25G26
+        G27G28G29G30G31G32J02J03J04R01R02R03R04R05R07R08R09
+        R11R12R13R14R15R16R17R18R19R20R21R22R24R25R26  0  0
++        10 11 10  9 10  9  9  9  8 10  8  8  8  8  8  8  8
++         8 10  9  8  8  8  8  8 10  9 10 10 11  9  9  9  9
++         8  9  8  8  8  8  8  8  7  8  8  8  7  8  9  9  8
++         8  7  9  9  7  7  8  8  8  7  5  0  5  8  7  7  0
++         7  7  0  8  8  0  0  7  8  0  7  8  9  7  8  0  7
++         7  0  0  8  7  8 10  9 10  8  8  8  8  7  7  8  8
++         9  9  9  9 10  9  9  7  8  8  9  7  9  8  9  0  0
%c M  cc GPS ccc cccc cccc cccc cccc ccccc ccccc ccccc ccccc
%c cc cc ccc ccc cccc cccc cccc cccc ccccc ccccc ccccc ccccc
%f  0.0000000  0.000000000  0.00000000000  0.000000000000000
%f  0.0000000  0.000000000  0.00000000000  0.000000000000000
%i    0    0    0    0      0      0      0      0         0
%i    0    0    0    0      0      0      0      0         0
/* IAC                                ULTRA-RAPID PREDICTION
/* S/V CLOCKS ARE ALIGNED TO GNSS TIME                      
/* G:C1WC2W R:C1PC2P E:C1XC5X C:C2IC6I J:C1CC2S             
/* PCV:IGS20_2280 OL/AL:FES2004  NONE     YN ORB:CoN CLK:CoN
*  2023 11 09 20  0  0.00000000
PC06 -11550.897548  23341.638755 -33170.719269     15.638127
PC07 -14302.026697  39352.719909   4097.016264   -292.620385
PC08   1368.170146  32609.472415  26821.739381    249.822421
PC09  -1795.314164  24219.596161 -34045.410876    -67.968619
PC10  -6976.742132  39691.088460  11779.628474    -11.209903
PC11  24256.248579   3891.170376  13335.750746    247.588468
PC12   7628.489165  13951.155903  22980.492100    865.127887
PC13   5901.275679  35654.598085  22118.018128    380.224252
PC14  14282.725290   6929.303280 -22940.813849    751.699276
PC16 -16161.626666  21715.001939 -32170.748363   -167.338660
PC19 -16663.537515   3966.394539  22042.842792   -972.738006
PC20 -10424.902435 -15201.008023  20961.220871    131.033649
PC21  -2734.101209  26851.553128  -7051.452652   -969.248531
PC22 -13683.446606  21943.256936  10455.563125   -231.836326
PC23  12513.962843 -10528.021902  22613.138149   -825.022701
PC24  19031.343335  20421.300961   -705.665525    580.035848
PC25  22159.106031   5715.717452  15974.518941    251.959426
PC26   6016.355103  22098.060220 -15988.135007   -203.875774
PC27   2058.549678 -16564.323810 -22377.711923    225.740316
PC28  19505.965334 -14509.580781 -13698.530265    170.262261
PC29 -27150.521992   3902.404595  -5130.641622    199.161078
PC30 -17215.514603  -9573.466101 -19776.307283     -8.037354
PC32   2594.099082 -26907.818853   6945.897714   -533.862442
PC33  16649.928854  -3962.928598 -22047.510311   -946.105096
PC34  18470.673102   8731.008815  18994.242539    299.793075
PC35 -18861.672569  15316.380398  13747.711503    506.520766
PC36 -22188.527351  -7006.854770 -15376.129810   -141.629711
PC37  -4819.744260 -21996.465465  16471.602416   -880.905730
PC38  -5886.993081  28360.959395  30746.555127    116.649549
PC39 -20027.600936  21579.944490 -30246.662893     -5.604930
PC40 -21301.422394  36170.035460   2067.048459    -43.365183
PC41  13893.221405 -21501.502472 -11068.103666   -871.372398
PC42   9622.223485  16597.168691 -20222.866950   -502.763542
PC43  27064.605527  -3208.269257   5949.711489     47.560702
PC44  -1650.554156  16798.231805  22217.306430    287.770702
PC45 -11959.099415  10944.026527 -22718.821131    -44.533729
PC46 -19537.853218 -19886.665607   -437.257113    -98.484303
PE02   3526.009568  29251.762425  -2962.701587     77.069789
PE03  -3676.268116  21696.497842 -19804.223405    -72.367546
PE04 -14820.391991  -9279.709380  23882.142663   -253.751355
PE07  24597.287371  -8289.330604 -14236.101771    -86.928795
PE08  14298.519900   9628.859694 -24070.940306   -174.495032
PE09 -24501.906906   8253.264160  14397.388265   -221.855784
PE10 -28094.660048  -9293.366496    290.160622   -577.624994
PE11 -27564.918501  -2201.445058  10561.273574   3188.915077
PE12 -24302.515807 -14375.811521  -8894.661838   -770.356319
PE13  27756.913345   2711.798986  -9913.368276    -19.607047
PE15  24024.702832  14529.431652   9388.803948    -68.100863
PE19   6232.305547 -22323.243951  18407.772508  -1248.842003
PE21   8996.200466 -21108.766443  18696.755423   -563.339031
PE24 -17074.756570   -291.266516 -24187.417666   -422.639854
PE25  -9207.669829  20819.525597 -18918.456994     -3.611080
PE26  14598.350185 -11032.509257 -23259.994388    276.162475
PE27  16949.950507   -309.858941  24269.087277   -195.818831
PE30  14653.518501  20764.555233  15182.436269   -648.872725
PE31 -14818.074942 -20414.593400 -15471.881906     -9.740968
PE33  -5610.372937 -17586.798368 -23127.934235      2.015137
PE34   6336.939473  17661.523110  22897.751619    -77.054606
PE36 -15195.741596  10517.742604  23129.308953   -141.766118
PG01 -19647.321957 -14793.343959 -10802.983404    163.198311
PG02      0.000000      0.000000      0.000000   -531.111902
PG03      0.000000      0.000000      0.000000    -25.011267
PG04 -12449.492723  -9237.529581  21585.482084    208.365326
PG05      0.000000      0.000000      0.000000   -149.756754
PG06 -14921.328665   8766.067217  20248.298884    510.177896
PG07      0.000000      0.000000      0.000000     17.761629
PG08      0.000000      0.000000      0.000000   -151.309185
PG09 -19747.915283   1110.906754  17666.194402     -7.779464
PG10      0.000000      0.000000      0.000000    -60.727076
PG11  -2474.439488  15161.088841  21691.800538   -453.019185
PG12   9820.480012  22413.445236  10143.586731   -445.221173
PG13  -6622.033464  18743.750453 -17708.865506    593.488555
PG14 -14209.141302   7332.351988 -21162.345219    238.591731
PG15   7336.573484  15239.477870 -20925.775171     95.510522
PG16   1265.450869 -25610.446511   5612.188179   -424.916014
PG17 -22665.896452  12713.766358  -5356.827008    723.392225
PG18  25301.742194   3950.392316  -7386.853585   -474.361925
PG19 -20455.252521  16407.269067   2606.048661    396.664247
PG20  -1173.237541  23204.407885  13083.974390    402.466411
PG21 -13085.471358 -15539.461062 -17068.946512    144.692724
PG22 -11294.272785  15149.070966 -18332.704770     86.941639
PG23  15468.340929   2854.378361 -21418.925785     96.214548
PG24  16534.166351  15316.873333 -14769.012096   -367.330663
PG25  15536.447872  11313.895542  18122.448796    476.659768
PG26   5738.608487 -20978.966138  14866.562059    217.759622
PG27   8594.840066 -20650.677892 -14247.725715    -67.637264
PG28  16631.115040  -8604.790383  18813.321782    -42.604701
PG29  19515.237162    763.079642  18004.678219   -610.229983
PG30 -22329.004424   3170.442453 -14114.226012   -469.973522
PG31   8499.236993 -12998.244562  21380.161392   -225.580807
PG32  20795.727010 -16132.607796  -2399.535283   -583.744854
PJ02 -20203.633772  28921.161632 -18318.397239     -0.128825
PJ03 -29561.526975  23894.067041  23406.443481     -7.694709
PJ04 -29979.649063  28111.635879  15365.972105     72.156902
PR01  10169.065992 -23363.853577   1237.146527     69.469584
PR02    296.370545 -18599.576351  17453.723197    -22.348433
PR03 -10400.863641  -3487.466021  23070.257123     88.709300
PR04 -14974.122497  13096.868952  16001.470281    210.396372
PR05 -11715.632723  22676.345193    266.879976    121.964375
PR07  10711.409348   2734.206704 -22951.111770     68.757184
PR08  14921.672662 -13337.924623 -15737.096885    -73.225004
PR09  12262.351224  21714.556998  -5150.606897    152.314792
PR11  13003.767449    578.850415  21943.223292   -212.021767
PR12    394.531176 -16266.800909  19661.792261     33.251614
PR13 -10830.924024 -21890.180995   7338.269980    -41.124683
PR14 -17076.514090 -14801.812383 -11837.428743     25.519277
PR15 -12408.076967    712.441069 -22258.171206     84.864737
PR16   -406.264309  15987.485238 -19853.191199     20.466663
PR17 -22883.971931  -3566.850159 -10622.409763     33.409612
PR18 -24549.342414   3788.291415   5918.876883    111.136646
PR19 -15287.873420   8512.293489  18561.788837   -254.051409
PR20   7093.975913   9881.813042  22429.434745   -103.233016
PR21  23242.131142   3392.246211   9994.832810    -52.135168
PR22  24320.245701  -3568.479301  -6771.229630     92.744530
PR24  -8144.763345  -9933.768213 -22009.753598    -31.514373
PR25  22756.933732   4693.487275  10562.843493     -6.216326
PR26  14837.993740 -12947.484487 -16207.860261    -17.392388
EOF
